CCSDS_OMM_VERS = 2.0
CREATION_DATE  = 
ORIGINATOR     = 

OBJECT_NAME    = UNKNOWN
OBJECT_ID      = 
CENTER_NAME    = EARTH
REF_FRAME      = TEME
TIME_SYSTEM    = UTC
MEAN_ELEMENT_THEORY = SGP/SGP4

EPOCH          = 2025-11-12T15:42:47.887488
MEAN_MOTION    = 12.55044476
ECCENTRICITY   = .00647235
INCLINATION    = 101.8435
RA_OF_ASC_NODE = 296.2698
ARG_OF_PERICENTER = 96.0999
MEAN_ANOMALY   = 264.7453

EPHEMERIS_TYPE = 0
CLASSIFICATION_TYPE = U
NORAD_CAT_ID   = 270014
ELEMENT_SET_NO = 999
REV_AT_EPOCH   = 27315
BSTAR          = .1196793E-2
MEAN_MOTION_DOT = .151E-5
MEAN_MOTION_DDOT = 0

CCSDS_OMM_VERS = 2.0
CREATION_DATE  = 
ORIGINATOR     = 

OBJECT_NAME    = UNKNOWN
OBJECT_ID      = 
CENTER_NAME    = EARTH
REF_FRAME      = TEME
TIME_SYSTEM    = UTC
MEAN_ELEMENT_THEORY = SGP/SGP4

EPOCH          = 2025-11-05T08:46:15.932352
MEAN_MOTION    = 13.04485328
ECCENTRICITY   = .00299015
INCLINATION    = 90.1299
RA_OF_ASC_NODE = 354.6157
ARG_OF_PERICENTER = 53.5145
MEAN_ANOMALY   = 306.8728

EPHEMERIS_TYPE = 0
CLASSIFICATION_TYPE = U
NORAD_CAT_ID   = 270015
ELEMENT_SET_NO = 999
REV_AT_EPOCH   = 28288
BSTAR          = .31114533E-2
MEAN_MOTION_DOT = .1008E-4
MEAN_MOTION_DDOT = 0

CCSDS_OMM_VERS = 2.0
CREATION_DATE  = 
ORIGINATOR     = 

OBJECT_NAME    = UNKNOWN
OBJECT_ID      = 
CENTER_NAME    = EARTH
REF_FRAME      = TEME
TIME_SYSTEM    = UTC
MEAN_ELEMENT_THEORY = SGP/SGP4

EPOCH          = 2025-11-24T12:05:39.072480
MEAN_MOTION    = 13.81667666
ECCENTRICITY   = .02296845
INCLINATION    = 98.7143
RA_OF_ASC_NODE = 58.8025
ARG_OF_PERICENTER = 240.9613
MEAN_ANOMALY   = 116.8358

EPHEMERIS_TYPE = 0
CLASSIFICATION_TYPE = U
NORAD_CAT_ID   = 270016
ELEMENT_SET_NO = 999
REV_AT_EPOCH   = 30141
BSTAR          = .15425534E-2
MEAN_MOTION_DOT = .1973E-4
MEAN_MOTION_DDOT = 0

CCSDS_OMM_VERS = 2.0
CREATION_DATE  = 
ORIGINATOR     = 

OBJECT_NAME    = UNKNOWN
OBJECT_ID      = 
CENTER_NAME    = EARTH
REF_FRAME      = TEME
TIME_SYSTEM    = UTC
MEAN_ELEMENT_THEORY = SGP/SGP4

EPOCH          = 2025-11-19T10:18:48.402432
MEAN_MOTION    = 13.02294715
ECCENTRICITY   = .00373258
INCLINATION    = 90.2820
RA_OF_ASC_NODE = 18.8584
ARG_OF_PERICENTER = 102.4376
MEAN_ANOMALY   = 258.0929

EPHEMERIS_TYPE = 0
CLASSIFICATION_TYPE = U
NORAD_CAT_ID   = 270017
ELEMENT_SET_NO = 999
REV_AT_EPOCH   = 28412
BSTAR          = .23087938E-2
MEAN_MOTION_DOT = .728E-5
MEAN_MOTION_DDOT = 0

CCSDS_OMM_VERS = 2.0
CREATION_DATE  = 
ORIGINATOR     = 

OBJECT_NAME    = UNKNOWN
OBJECT_ID      = 
CENTER_NAME    = EARTH
REF_FRAME      = TEME
TIME_SYSTEM    = UTC
MEAN_ELEMENT_THEORY = SGP/SGP4

EPOCH          = 2025-11-25T00:50:38.301792
MEAN_MOTION    = 14.07382446
ECCENTRICITY   = .00633367
INCLINATION    = 99.8139
RA_OF_ASC_NODE = 70.4520
ARG_OF_PERICENTER = 183.6969
MEAN_ANOMALY   = 176.3737

EPHEMERIS_TYPE = 0
CLASSIFICATION_TYPE = U
NORAD_CAT_ID   = 270018
ELEMENT_SET_NO = 999
REV_AT_EPOCH   = 30590
BSTAR          = .43148729E-2
MEAN_MOTION_DOT = .7344E-4
MEAN_MOTION_DDOT = 0

CCSDS_OMM_VERS = 2.0
CREATION_DATE  = 
ORIGINATOR     = 

OBJECT_NAME    = UNKNOWN
OBJECT_ID      = 
CENTER_NAME    = EARTH
REF_FRAME      = TEME
TIME_SYSTEM    = UTC
MEAN_ELEMENT_THEORY = SGP/SGP4

EPOCH          = 2025-11-10T10:06:23.569632
MEAN_MOTION    = 12.95779391
ECCENTRICITY   = .00510998
INCLINATION    = 90.2504
RA_OF_ASC_NODE = 5.6777
ARG_OF_PERICENTER = 37.1994
MEAN_ANOMALY   = 323.2648

EPHEMERIS_TYPE = 0
CLASSIFICATION_TYPE = U
NORAD_CAT_ID   = 270019
ELEMENT_SET_NO = 999
REV_AT_EPOCH   = 28159
BSTAR          = .85982217E-3
MEAN_MOTION_DOT = .253E-5
MEAN_MOTION_DDOT = 0

CCSDS_OMM_VERS = 2.0
CREATION_DATE  = 
ORIGINATOR     = 

OBJECT_NAME    = UNKNOWN
OBJECT_ID      = 
CENTER_NAME    = EARTH
REF_FRAME      = TEME
TIME_SYSTEM    = UTC
MEAN_ELEMENT_THEORY = SGP/SGP4

EPOCH          = 2025-11-25T08:01:09.357312
MEAN_MOTION    = 13.95997146
ECCENTRICITY   = .00197034
INCLINATION    = 82.5306
RA_OF_ASC_NODE = 179.8477
ARG_OF_PERICENTER = 217.2444
MEAN_ANOMALY   = 142.7358

EPHEMERIS_TYPE = 0
CLASSIFICATION_TYPE = U
NORAD_CAT_ID   = 270020
ELEMENT_SET_NO = 999
REV_AT_EPOCH   = 30453
BSTAR          = .78729713E-3
MEAN_MOTION_DOT = .1094E-4
MEAN_MOTION_DDOT = 0

CCSDS_OMM_VERS = 2.0
CREATION_DATE  = 
ORIGINATOR     = 

OBJECT_NAME    = UNKNOWN
OBJECT_ID      = 
CENTER_NAME    = EARTH
REF_FRAME      = TEME
TIME_SYSTEM    = UTC
MEAN_ELEMENT_THEORY = SGP/SGP4

EPOCH          = 2025-11-24T21:04:49.181664
MEAN_MOTION    = 12.65815163
ECCENTRICITY   = .00533227
INCLINATION    = 82.7180
RA_OF_ASC_NODE = 195.5229
ARG_OF_PERICENTER = 119.3365
MEAN_ANOMALY   = 241.3070

EPHEMERIS_TYPE = 0
CLASSIFICATION_TYPE = U
NORAD_CAT_ID   = 270021
ELEMENT_SET_NO = 999
REV_AT_EPOCH   = 27680
BSTAR          = .19679235E-2
MEAN_MOTION_DOT = .382E-5
MEAN_MOTION_DDOT = 0

CCSDS_OMM_VERS = 2.0
CREATION_DATE  = 
ORIGINATOR     = 

OBJECT_NAME    = UNKNOWN
OBJECT_ID      = 
CENTER_NAME    = EARTH
REF_FRAME      = TEME
TIME_SYSTEM    = UTC
MEAN_ELEMENT_THEORY = SGP/SGP4

EPOCH          = 2025-11-24T20:13:27.838848
MEAN_MOTION    = 12.64017943
ECCENTRICITY   = .05058928
INCLINATION    = 100.1270
RA_OF_ASC_NODE = 183.0850
ARG_OF_PERICENTER = 111.2641
MEAN_ANOMALY   = 254.3229

EPHEMERIS_TYPE = 0
CLASSIFICATION_TYPE = U
NORAD_CAT_ID   = 270022
ELEMENT_SET_NO = 999
REV_AT_EPOCH   = 27347
BSTAR          = .24958633E-1
MEAN_MOTION_DOT = .7494E-4
MEAN_MOTION_DDOT = 0

CCSDS_OMM_VERS = 2.0
CREATION_DATE  = 
ORIGINATOR     = 

OBJECT_NAME    = UNKNOWN
OBJECT_ID      = 
CENTER_NAME    = EARTH
REF_FRAME      = TEME
TIME_SYSTEM    = UTC
MEAN_ELEMENT_THEORY = SGP/SGP4

EPOCH          = 2025-11-09T05:25:27.754752
MEAN_MOTION    = 12.45689578
ECCENTRICITY   = .00226802
INCLINATION    = 73.6379
RA_OF_ASC_NODE = 303.6245
ARG_OF_PERICENTER = 109.3318
MEAN_ANOMALY   = 251.0184

EPHEMERIS_TYPE = 0
CLASSIFICATION_TYPE = U
NORAD_CAT_ID   = 270023
ELEMENT_SET_NO = 999
REV_AT_EPOCH   = 27054
BSTAR          = .17305836E-2
MEAN_MOTION_DOT = .232E-5
MEAN_MOTION_DDOT = 0

CCSDS_OMM_VERS = 2.0
CREATION_DATE  = 
ORIGINATOR     = 

OBJECT_NAME    = UNKNOWN
OBJECT_ID      = 
CENTER_NAME    = EARTH
REF_FRAME      = TEME
TIME_SYSTEM    = UTC
MEAN_ELEMENT_THEORY = SGP/SGP4

EPOCH          = 2025-11-24T20:15:19.570464
MEAN_MOTION    = 12.62474458
ECCENTRICITY   = .00011235
INCLINATION    = 51.9808
RA_OF_ASC_NODE = 180.6927
ARG_OF_PERICENTER = 74.6457
MEAN_ANOMALY   = 285.4534

EPHEMERIS_TYPE = 0
CLASSIFICATION_TYPE = U
NORAD_CAT_ID   = 270024
ELEMENT_SET_NO = 999
REV_AT_EPOCH   = 27665
BSTAR          = .18181597E-3
MEAN_MOTION_DOT = -.71E-6
MEAN_MOTION_DDOT = 0

CCSDS_OMM_VERS = 2.0
CREATION_DATE  = 
ORIGINATOR     = 

OBJECT_NAME    = UNKNOWN
OBJECT_ID      = 
CENTER_NAME    = EARTH
REF_FRAME      = TEME
TIME_SYSTEM    = UTC
MEAN_ELEMENT_THEORY = SGP/SGP4

EPOCH          = 2025-11-24T15:16:15.385152
MEAN_MOTION    = 14.22066603
ECCENTRICITY   = .00750154
INCLINATION    = 98.5878
RA_OF_ASC_NODE = 288.5311
ARG_OF_PERICENTER = 126.4210
MEAN_ANOMALY   = 234.3915

EPHEMERIS_TYPE = 0
CLASSIFICATION_TYPE = U
NORAD_CAT_ID   = 270025
ELEMENT_SET_NO = 999
REV_AT_EPOCH   = 31017
BSTAR          = .77587623E-3
MEAN_MOTION_DOT = .1724E-4
MEAN_MOTION_DDOT = 0

CCSDS_OMM_VERS = 2.0
CREATION_DATE  = 
ORIGINATOR     = 

OBJECT_NAME    = UNKNOWN
OBJECT_ID      = 
CENTER_NAME    = EARTH
REF_FRAME      = TEME
TIME_SYSTEM    = UTC
MEAN_ELEMENT_THEORY = SGP/SGP4

EPOCH          = 2025-11-17T13:25:03.730080
MEAN_MOTION    = 11.91979246
ECCENTRICITY   = .03829824
INCLINATION    = 103.3434
RA_OF_ASC_NODE = 76.7763
ARG_OF_PERICENTER = 344.8838
MEAN_ANOMALY   = 14.1008

EPHEMERIS_TYPE = 0
CLASSIFICATION_TYPE = U
NORAD_CAT_ID   = 270026
ELEMENT_SET_NO = 999
REV_AT_EPOCH   = 25984
BSTAR          = .14896095E-1
MEAN_MOTION_DOT = .1295E-4
MEAN_MOTION_DDOT = 0

CCSDS_OMM_VERS = 2.0
CREATION_DATE  = 
ORIGINATOR     = 

OBJECT_NAME    = UNKNOWN
OBJECT_ID      = 
CENTER_NAME    = EARTH
REF_FRAME      = TEME
TIME_SYSTEM    = UTC
MEAN_ELEMENT_THEORY = SGP/SGP4

EPOCH          = 2025-11-16T10:02:46.710816
MEAN_MOTION    = 11.79991041
ECCENTRICITY   = .04741083
INCLINATION    = 100.9153
RA_OF_ASC_NODE = 209.8097
ARG_OF_PERICENTER = 193.9418
MEAN_ANOMALY   = 164.8129

EPHEMERIS_TYPE = 0
CLASSIFICATION_TYPE = U
NORAD_CAT_ID   = 270027
ELEMENT_SET_NO = 999
REV_AT_EPOCH   = 25685
BSTAR          = -.71870437E-2
MEAN_MOTION_DOT = -.648E-5
MEAN_MOTION_DDOT = 0

CCSDS_OMM_VERS = 2.0
CREATION_DATE  = 
ORIGINATOR     = 

OBJECT_NAME    = UNKNOWN
OBJECT_ID      = 
CENTER_NAME    = EARTH
REF_FRAME      = TEME
TIME_SYSTEM    = UTC
MEAN_ELEMENT_THEORY = SGP/SGP4

EPOCH          = 2025-11-19T21:10:13.265472
MEAN_MOTION    = 13.95967114
ECCENTRICITY   = .00037179
INCLINATION    = 82.5219
RA_OF_ASC_NODE = 177.9185
ARG_OF_PERICENTER = 180.0503
MEAN_ANOMALY   = 180.0664

EPHEMERIS_TYPE = 0
CLASSIFICATION_TYPE = U
NORAD_CAT_ID   = 270029
ELEMENT_SET_NO = 999
REV_AT_EPOCH   = 30369
BSTAR          = .13476355E-2
MEAN_MOTION_DOT = .1859E-4
MEAN_MOTION_DDOT = 0

CCSDS_OMM_VERS = 2.0
CREATION_DATE  = 
ORIGINATOR     = 

OBJECT_NAME    = UNKNOWN
OBJECT_ID      = 
CENTER_NAME    = EARTH
REF_FRAME      = TEME
TIME_SYSTEM    = UTC
MEAN_ELEMENT_THEORY = SGP/SGP4

EPOCH          = 2025-11-11T10:34:18.904512
MEAN_MOTION    = 13.01979665
ECCENTRICITY   = .00385958
INCLINATION    = 90.2605
RA_OF_ASC_NODE = 16.2566
ARG_OF_PERICENTER = 139.5170
MEAN_ANOMALY   = 220.8836

EPHEMERIS_TYPE = 0
CLASSIFICATION_TYPE = U
NORAD_CAT_ID   = 270030
ELEMENT_SET_NO = 999
REV_AT_EPOCH   = 28299
BSTAR          = -.47801826E-3
MEAN_MOTION_DOT = -.141E-5
MEAN_MOTION_DDOT = 0

